COSMOS 2251 DEB         
1 34452U 93036SV  26107.92203482  .00007425  00000+0  36942-3 0  9999
2 34452  74.0259 280.6003 0058822 322.6679  37.0434 15.16238430925725
COSMOS 2251 DEB         
1 34454U 93036SX  26107.89773907  .00000395  00000+0  13534-3 0  9992
2 34454  74.0595  45.2575 0033918  78.8286 281.6679 14.39008036898821
COSMOS 2251 DEB         
1 34459U 93036TC  26107.48971350  .00000518  00000+0  31018-3 0  9998
2 34459  74.0807  36.6647 0190021  76.7406 285.4844 14.00710446874728
COSMOS 2251 DEB         
1 34464U 93036TH  26107.53535358  .00660831  00000+0  30057-2 0  9995
2 34464  73.9682 163.5814 0021782 297.0592  62.8414 15.81783423917824
COSMOS 2251 DEB         
1 34468U 93036TM  26107.46961786  .00000454  00000+0  12598-3 0  9999
2 34468  74.0120 241.5860 0075228 355.1908   4.8518 14.47924502902816
COSMOS 2251 DEB         
1 34472U 93036TR  26107.83290422  .00000121  00000+0  11028-3 0  9995
2 34472  74.0815 250.6937 0328645 352.4324   7.1896 13.70707179854549
COSMOS 2251 DEB         
1 34474U 93036TT  26107.77966900  .00001684  00000+0  84744-3 0  9991
2 34474  74.0741 105.9405 0199153 151.4663  25.3161 14.07367364872810
COSMOS 2251 DEB         
1 34476U 93036TV  26107.78624415  .00001729  00000+0  10879-2 0  9993
2 34476  74.0048 229.7936 0314705  61.9571 301.3002 13.83313153853800
COSMOS 2251 DEB         
1 34477U 93036TW  26107.69715103  .00001252  00000+0  27056-3 0  9996
2 34477  73.9774 189.3016 0075331 344.7976 140.9387 14.57698509904606
COSMOS 2251 DEB         
1 34478U 93036TX  26107.74530696  .00049873  00000+0  19086-2 0  9999
2 34478  74.0366 104.3057 0032651 274.7000  85.0472 15.25824355908835
COSMOS 2251 DEB         
1 34481U 93036UA  26107.93943823  .00000794  00000+0  29187-3 0  9997
2 34481  73.9789 182.1606 0070681 325.3573 211.7443 14.32969969892569
COSMOS 2251 DEB         
1 34482U 93036UB  26107.73794615  .00005615  00000+0  87471-3 0  9996
2 34482  74.0373 338.9117 0038738  11.5466  54.9571 14.72683125900404
COSMOS 2251 DEB         
1 34544U 93036UE  26107.70186869  .00000531  00000+0  50556-3 0  9994
2 34544  73.9185   0.0869 0381112   5.2058  24.0019 13.54901805845889
COSMOS 2251 DEB         
1 34546U 93036UG  26107.54782093  .00001141  00000+0  32677-3 0  9991
2 34546  74.0322  14.4836 0020190  63.1171 354.4257 14.46012019898440
COSMOS 2251 DEB         
1 34547U 93036UH  26107.27180122  .00005140  00000+0  76232-3 0  9995
2 34547  74.0302 215.7424 0018435 266.0454  93.8612 14.75231114903712
COSMOS 2251 DEB         
1 34553U 93036UP  26107.66579429  .00002068  00000+0  44380-3 0  9992
2 34553  74.0246 312.0129 0017551   3.0115  61.9911 14.59206869899320
COSMOS 2251 DEB         
1 34554U 93036UQ  26107.64718720  .00000431  00000+0  15022-3 0  9993
2 34554  74.0382  67.1045 0021883 105.1523  74.4217 14.38192878895658
COSMOS 2251 DEB         
1 34556U 93036US  26107.75591884  .00008583  00000+0  10798-2 0  9997
2 34556  74.0145 236.2949 0007777 272.3980 216.6153 14.82163827901938
COSMOS 2251 DEB         
1 34560U 93036UW  26107.82942787  .00005887  00000+0  86799-3 0  9991
2 34560  74.0153 255.8463 0013649 308.8262 202.6034 14.75487977901090
COSMOS 2251 DEB         
1 34563U 93036UZ  26107.86274376  .00000867  00000+0  24551-3 0  9991
2 34563  74.0384 328.1389 0012510  34.3988 340.7820 14.46995946900210
COSMOS 2251 DEB         
1 34564U 93036VA  26107.89203141  .00000399  00000+0  13245-3 0  9995
2 34564  74.0348   4.5650 0017970  82.6644  41.3606 14.40923058898230
COSMOS 2251 DEB         
1 34567U 93036VD  26107.79688392  .00000193  00000+0  92329-4 0  9995
2 34567  74.0400 289.8755 0073788 332.9026  42.2297 14.24152303889190
COSMOS 2251 DEB         
1 34569U 93036VF  26107.89933780  .00000943  00000+0  36265-3 0  9991
2 34569  73.9912 329.9262 0157569 129.9812 250.2631 14.25139884887656
COSMOS 2251 DEB         
1 34570U 93036VG  26106.48122844  .00000491  00000+0  29897-3 0  9999
2 34570  73.9605   1.2852 0191653 217.4448 321.7697 14.00073907873468
COSMOS 2251 DEB         
1 34571U 93036VH  26107.53126949  .00003882  00000+0  95693-3 0  9991
2 34571  74.0391 306.1527 0058542 311.7784  47.8382 14.51484811891170
COSMOS 2251 DEB         
1 34572U 93036VJ  26106.64456859  .00003954  00000+0  95520-3 0  9998
2 34572  74.0088 240.0670 0061477 284.1108  91.9621 14.52317486891904
COSMOS 2251 DEB         
1 34574U 93036VL  26107.52850788  .00002876  00000+0  44162-3 0  9995
2 34574  74.0668 159.0523 0063817 150.0728 280.2343 14.72686673906297
COSMOS 2251 DEB         
1 34576U 93036VN  26107.88076858  .00001766  00000+0  40453-3 0  9990
2 34576  74.0321 259.0277 0007504   1.5270 152.3639 14.56347738903028
COSMOS 2251 DEB         
1 34579U 93036VR  26107.83956801  .00000751  00000+0  21867-3 0  9994
2 34579  74.0544 349.0430 0025672  27.4570  99.1132 14.45748526899966
COSMOS 2251 DEB         
1 34582U 93036VU  26107.92402790  .00000979  00000+0  29094-3 0  9993
2 34582  74.0201  37.5928 0048211 120.8629 239.7284 14.43888881897682
COSMOS 2251 DEB         
1 34588U 93036WA  26107.91028326  .00000757  00000+0  23622-3 0  9992
2 34588  74.0446  34.3829 0016998  61.2077   5.2613 14.42420610897690
COSMOS 2251 DEB         
1 34589U 93036WB  26107.25772631  .00000242  00000+0  17858-3 0  9998
2 34589  73.9256 202.0933 0248987 121.3715 272.2374 13.86337111864515
COSMOS 2251 DEB         
1 34590U 93036WC  26106.21616682  .00000217  00000+0  55600-4 0  9998
2 34590  74.0417  87.0475 0069553 186.1761 193.3796 14.54991120909311
COSMOS 2251 DEB         
1 34609U 93036WE  26105.33631443  .00000929  00000+0  38747-3 0  9995
2 34609  73.7316 240.7179 0142607  80.7566 306.4679 14.22321354883891
COSMOS 2251 DEB         
1 34610U 93036WF  26107.22107193  .00001525  00000+0  78752-3 0  9990
2 34610  74.0180  42.1023 0180246 144.9415 216.3747 14.07798579873259
COSMOS 2251 DEB         
1 34611U 93036WG  26107.75809890  .00005939  00000+0  94614-3 0  9990
2 34611  74.0528 216.5719 0022528 229.9319 290.4598 14.72025148902437
COSMOS 2251 DEB         
1 34613U 93036WJ  26107.27111334  .00001498  00000+0  58149-3 0  9997
2 34613  73.9629  50.4382 0114396 213.5342 298.0729 14.27253307882538
COSMOS 2251 DEB         
1 34614U 93036WK  26107.87599524  .00003960  00000+0  15770-2 0  9993
2 34614  73.8760 116.2470 0179102  88.6278 341.2812 14.20543673865567
COSMOS 2251 DEB         
1 34615U 93036WL  26107.72520539  .00000421  00000+0  40634-3 0  9995
2 34615  74.0040  92.0735 0399995 332.8104 208.1463 13.52359293845189
COSMOS 2251 DEB         
1 34619U 93036WQ  26107.86548000  .00000540  00000+0  10055-3 0  9993
2 34619  74.0438 317.4896 0092548  19.7455 340.7256 14.65050016911453
COSMOS 2251 DEB         
1 34620U 93036WR  26106.70425174  .00003803  00000+0  91338-3 0  9991
2 34620  74.0529 344.7909 0071501 352.0627   7.9396 14.52191482886394
COSMOS 2251 DEB         
1 34622U 93036WT  26107.68680444  .00000654  00000+0  28735-3 0  9996
2 34622  74.0396  80.9313 0105402 135.9097  39.2178 14.22513385882505
COSMOS 2251 DEB         
1 34626U 93036WX  26107.90568131  .00003382  00000+0  51896-3 0  9998
2 34626  74.0458  78.2553 0026959 143.2269 247.6227 14.73776661910029
COSMOS 2251 DEB         
1 34634U 93036XF  26107.59806522  .00000630  00000+0  14747-3 0  9998
2 34634  74.0504 156.6053 0046491 231.9464 283.6528 14.56098381906139
COSMOS 2251 DEB         
1 34635U 93036XG  26107.70689806  .00003373  00000+0  56168-3 0  9996
2 34635  74.0446 186.8957 0030354 226.4057 296.0494 14.70156962750695
COSMOS 2251 DEB         
1 34637U 93036XJ  26107.71446054  .00002223  00000+0  44920-3 0  9991
2 34637  74.0494 220.6794 0050791 258.4874 215.2291 14.61199851903664
COSMOS 2251 DEB         
1 34641U 93036XN  26107.51196608  .00001793  00000+0  44113-3 0  9996
2 34641  73.8387 201.6471 0015489  94.7480 281.2797 14.52970646900825
COSMOS 2251 DEB         
1 34642U 93036XP  26106.06512252  .00001027  00000+0  59693-3 0  9992
2 34642  74.0012 124.3618 0210910 275.1989 113.4483 13.99441978870323
COSMOS 2251 DEB         
1 34671U 93036XR  26107.64827167  .00004707  00000+0  80232-3 0  9994
2 34671  74.0254 250.7390 0010969 299.9919  70.7350 14.69262398901455
COSMOS 2251 DEB         
1 34672U 93036XS  26105.68442949  .00000337  00000+0  12324-3 0  9990
2 34672  74.0319  77.8294 0023360 126.4531  50.4921 14.36601785669576
COSMOS 2251 DEB         
1 34678U 93036XY  26107.86171904  .00000033  00000+0  22716-4 0  9998
2 34678  74.0351 136.4009 0024955 159.2562 256.3075 14.30086925891822
COSMOS 2251 DEB         
1 34680U 93036YA  26107.63373731  .00002672  00000+0  53852-3 0  9993
2 34680  74.0417 249.1995 0006656 308.8499  61.6638 14.61999610901678
COSMOS 2251 DEB         
1 34681U 93036YB  26107.82517395  .00005962  00000+0  67761-3 0  9990
2 34681  74.0631  40.5187 0021098  74.5933 315.5153 14.86322643911420
COSMOS 2251 DEB         
1 34682U 93036YC  26107.26235297  .00001565  00000+0  33280-3 0  9991
2 34682  74.0384 203.7359 0019366 299.5739  91.1751 14.59833210905171
COSMOS 2251 DEB         
1 34683U 93036YD  26107.69720544  .00002849  00000+0  52235-3 0  9990
2 34683  74.0287 209.7367 0019480 289.6216 199.8037 14.66140409901938
COSMOS 2251 DEB         
1 34685U 93036YF  26107.88273208  .00002297  00000+0  49792-3 0  9994
2 34685  74.0274 268.6904 0013432 341.3203 169.1578 14.58709236903707
COSMOS 2251 DEB         
1 34689U 93036YK  26107.77467568  .00003893  00000+0  18949-2 0  9992
2 34689  74.0906   3.7890 0221619  43.7471  13.7587 14.06469980861128
COSMOS 2251 DEB         
1 34721U 93036YP  26106.29939064  .00001183  00000+0  70578-3 0  9997
2 34721  73.9201 110.0652 0215723  23.3415 352.3203 13.97380221868897
COSMOS 2251 DEB         
1 34722U 93036YQ  26107.44011582  .00001224  00000+0  59981-3 0  9993
2 34722  73.8691 111.8352 0162545  13.4095 139.6351 14.12261915880196
COSMOS 2251 DEB         
1 34726U 93036YU  26107.00253834  .00000987  00000+0  20890-3 0  9999
2 34726  74.0251 107.2549 0044898 226.4463 133.2971 14.60063222903308
